{
  "type": "FeatureCollection",
  "features": [
    {
      "type": "Feature",
      "geometry": {
        "type": "Point",
        "coordinates": [
          -46.3,
          -15.2
        ]
      },
      "properties": {
        "municipio": "FORMOSO",
        "estado": "MINAS GERAIS",
        "bioma": "Cerrado",
        "periodo": "junho de 2026",
        "seca_faixa": "seca muito prolongada",
        "focos_faixa": "focos moderados",
        "energia_faixa": "energia observada alta",
        "risco_faixa": "risco publico muito alto",
        "priority_class": "prioridade preventiva"
      }
    },
    {
      "type": "Feature",
      "geometry": {
        "type": "Point",
        "coordinates": [
          -45.6,
          -11
        ]
      },
      "properties": {
        "municipio": "FORMOSA DO RIO PRETO",
        "estado": "BAHIA",
        "bioma": "Cerrado",
        "periodo": "junho de 2026",
        "seca_faixa": "seca muito prolongada",
        "focos_faixa": "focos elevados",
        "energia_faixa": "energia observada moderada",
        "risco_faixa": "risco publico muito alto",
        "priority_class": "alta prioridade"
      }
    },
    {
      "type": "Feature",
      "geometry": {
        "type": "Point",
        "coordinates": [
          -46.2,
          -9.5
        ]
      },
      "properties": {
        "municipio": "ALTO PARNAÍBA",
        "estado": "MARANHÃO",
        "bioma": "Cerrado",
        "periodo": "junho de 2026",
        "seca_faixa": "seca prolongada",
        "focos_faixa": "focos relevantes",
        "energia_faixa": "energia observada baixa",
        "risco_faixa": "risco publico muito alto",
        "priority_class": "alta prioridade"
      }
    },
    {
      "type": "Feature",
      "geometry": {
        "type": "Point",
        "coordinates": [
          -47.9,
          -12.4
        ]
      },
      "properties": {
        "municipio": "PARANÃ",
        "estado": "TOCANTINS",
        "bioma": "Cerrado",
        "periodo": "junho de 2026",
        "seca_faixa": "seca prolongada",
        "focos_faixa": "focos relevantes",
        "energia_faixa": "energia observada baixa",
        "risco_faixa": "risco publico muito alto",
        "priority_class": "alta prioridade"
      }
    },
    {
      "type": "Feature",
      "geometry": {
        "type": "Point",
        "coordinates": [
          -46.5,
          -10.1
        ]
      },
      "properties": {
        "municipio": "SÃO FÉLIX DO TOCANTINS",
        "estado": "TOCANTINS",
        "bioma": "Cerrado",
        "periodo": "junho de 2026",
        "seca_faixa": "seca prolongada",
        "focos_faixa": "focos relevantes",
        "energia_faixa": "energia observada moderada",
        "risco_faixa": "risco publico muito alto",
        "priority_class": "alta prioridade"
      }
    },
    {
      "type": "Feature",
      "geometry": {
        "type": "Point",
        "coordinates": [
          -46.6,
          -10.5
        ]
      },
      "properties": {
        "municipio": "MATEIROS",
        "estado": "TOCANTINS",
        "bioma": "Cerrado",
        "periodo": "junho de 2026",
        "seca_faixa": "seca prolongada",
        "focos_faixa": "focos elevados",
        "energia_faixa": "energia observada moderada",
        "risco_faixa": "risco publico muito alto",
        "priority_class": "alta prioridade"
      }
    },
    {
      "type": "Feature",
      "geometry": {
        "type": "Point",
        "coordinates": [
          -46.3,
          -8.2
        ]
      },
      "properties": {
        "municipio": "BALSAS",
        "estado": "MARANHÃO",
        "bioma": "Cerrado",
        "periodo": "junho de 2026",
        "seca_faixa": "seca prolongada",
        "focos_faixa": "focos relevantes",
        "energia_faixa": "energia observada baixa",
        "risco_faixa": "risco publico muito alto",
        "priority_class": "alta prioridade"
      }
    },
    {
      "type": "Feature",
      "geometry": {
        "type": "Point",
        "coordinates": [
          -45.7,
          -8.9
        ]
      },
      "properties": {
        "municipio": "SANTA FILOMENA",
        "estado": "PIAUÍ",
        "bioma": "Cerrado",
        "periodo": "junho de 2026",
        "seca_faixa": "seca prolongada",
        "focos_faixa": "focos relevantes",
        "energia_faixa": "energia observada baixa",
        "risco_faixa": "risco publico muito alto",
        "priority_class": "alta prioridade"
      }
    },
    {
      "type": "Feature",
      "geometry": {
        "type": "Point",
        "coordinates": [
          -47.5,
          -8.6
        ]
      },
      "properties": {
        "municipio": "ITACAJÁ",
        "estado": "TOCANTINS",
        "bioma": "Cerrado",
        "periodo": "junho de 2026",
        "seca_faixa": "seca prolongada",
        "focos_faixa": "focos moderados",
        "energia_faixa": "energia observada baixa",
        "risco_faixa": "risco publico alto",
        "priority_class": "prioridade preventiva"
      }
    },
    {
      "type": "Feature",
      "geometry": {
        "type": "Point",
        "coordinates": [
          -45.3,
          -7.7
        ]
      },
      "properties": {
        "municipio": "RIBEIRO GONÇALVES",
        "estado": "PIAUÍ",
        "bioma": "Cerrado",
        "periodo": "junho de 2026",
        "seca_faixa": "seca prolongada",
        "focos_faixa": "focos moderados",
        "energia_faixa": "energia observada baixa",
        "risco_faixa": "risco publico muito alto",
        "priority_class": "prioridade preventiva"
      }
    },
    {
      "type": "Feature",
      "geometry": {
        "type": "Point",
        "coordinates": [
          -43,
          -7
        ]
      },
      "properties": {
        "municipio": "FLORIANO",
        "estado": "PIAUÍ",
        "bioma": "Caatinga",
        "periodo": "junho de 2026",
        "seca_faixa": "seca prolongada",
        "focos_faixa": "focos elevados",
        "energia_faixa": "energia observada baixa",
        "risco_faixa": "risco publico muito alto",
        "priority_class": "alta prioridade"
      }
    },
    {
      "type": "Feature",
      "geometry": {
        "type": "Point",
        "coordinates": [
          -46,
          -8.5
        ]
      },
      "properties": {
        "municipio": "TASSO FRAGOSO",
        "estado": "MARANHÃO",
        "bioma": "Cerrado",
        "periodo": "junho de 2026",
        "seca_faixa": "seca prolongada",
        "focos_faixa": "focos relevantes",
        "energia_faixa": "energia observada baixa",
        "risco_faixa": "risco publico muito alto",
        "priority_class": "alta prioridade"
      }
    },
    {
      "type": "Feature",
      "geometry": {
        "type": "Point",
        "coordinates": [
          -48,
          -9.9
        ]
      },
      "properties": {
        "municipio": "APARECIDA DO RIO NEGRO",
        "estado": "TOCANTINS",
        "bioma": "Cerrado",
        "periodo": "junho de 2026",
        "seca_faixa": "seca prolongada",
        "focos_faixa": "focos relevantes",
        "energia_faixa": "energia observada baixa",
        "risco_faixa": "risco publico alto",
        "priority_class": "prioridade preventiva"
      }
    },
    {
      "type": "Feature",
      "geometry": {
        "type": "Point",
        "coordinates": [
          -45.3,
          -8.5
        ]
      },
      "properties": {
        "municipio": "BAIXA GRANDE DO RIBEIRO",
        "estado": "PIAUÍ",
        "bioma": "Cerrado",
        "periodo": "junho de 2026",
        "seca_faixa": "seca prolongada",
        "focos_faixa": "focos moderados",
        "energia_faixa": "energia observada baixa",
        "risco_faixa": "risco publico muito alto",
        "priority_class": "prioridade preventiva"
      }
    },
    {
      "type": "Feature",
      "geometry": {
        "type": "Point",
        "coordinates": [
          -44,
          -8.6
        ]
      },
      "properties": {
        "municipio": "ALVORADA DO GURGUÉIA",
        "estado": "PIAUÍ",
        "bioma": "Cerrado",
        "periodo": "junho de 2026",
        "seca_faixa": "seca prolongada",
        "focos_faixa": "focos pontuais",
        "energia_faixa": "energia observada baixa",
        "risco_faixa": "risco publico muito alto",
        "priority_class": "monitoramento recomendado"
      }
    },
    {
      "type": "Feature",
      "geometry": {
        "type": "Point",
        "coordinates": [
          -47.8,
          -9.6
        ]
      },
      "properties": {
        "municipio": "RIO SONO",
        "estado": "TOCANTINS",
        "bioma": "Cerrado",
        "periodo": "junho de 2026",
        "seca_faixa": "seca prolongada",
        "focos_faixa": "focos relevantes",
        "energia_faixa": "energia observada baixa",
        "risco_faixa": "risco publico muito alto",
        "priority_class": "alta prioridade"
      }
    },
    {
      "type": "Feature",
      "geometry": {
        "type": "Point",
        "coordinates": [
          -43.6,
          -7.3
        ]
      },
      "properties": {
        "municipio": "CANAVIEIRA",
        "estado": "PIAUÍ",
        "bioma": "Caatinga",
        "periodo": "junho de 2026",
        "seca_faixa": "seca prolongada",
        "focos_faixa": "focos pontuais",
        "energia_faixa": "energia observada baixa",
        "risco_faixa": "risco publico muito alto",
        "priority_class": "monitoramento recomendado"
      }
    },
    {
      "type": "Feature",
      "geometry": {
        "type": "Point",
        "coordinates": [
          -49.5,
          -10.4
        ]
      },
      "properties": {
        "municipio": "PIUM",
        "estado": "TOCANTINS",
        "bioma": "Cerrado",
        "periodo": "junho de 2026",
        "seca_faixa": "seca prolongada",
        "focos_faixa": "focos elevados",
        "energia_faixa": "energia observada alta",
        "risco_faixa": "risco publico alto",
        "priority_class": "prioridade preventiva"
      }
    },
    {
      "type": "Feature",
      "geometry": {
        "type": "Point",
        "coordinates": [
          -48,
          -10.4
        ]
      },
      "properties": {
        "municipio": "MONTE DO CARMO",
        "estado": "TOCANTINS",
        "bioma": "Cerrado",
        "periodo": "junho de 2026",
        "seca_faixa": "seca relevante",
        "focos_faixa": "focos moderados",
        "energia_faixa": "energia observada moderada",
        "risco_faixa": "risco publico alto",
        "priority_class": "prioridade preventiva"
      }
    },
    {
      "type": "Feature",
      "geometry": {
        "type": "Point",
        "coordinates": [
          -50.4,
          -9.5
        ]
      },
      "properties": {
        "municipio": "SANTANA DO ARAGUAIA",
        "estado": "PARÁ",
        "bioma": "Amazônia",
        "periodo": "junho de 2026",
        "seca_faixa": "seca relevante",
        "focos_faixa": "focos elevados",
        "energia_faixa": "energia observada moderada",
        "risco_faixa": "risco publico muito alto",
        "priority_class": "prioridade preventiva"
      }
    },
    {
      "type": "Feature",
      "geometry": {
        "type": "Point",
        "coordinates": [
          -43.5,
          -6.8
        ]
      },
      "properties": {
        "municipio": "GUADALUPE",
        "estado": "PIAUÍ",
        "bioma": "Cerrado",
        "periodo": "junho de 2026",
        "seca_faixa": "seca relevante",
        "focos_faixa": "focos pontuais",
        "energia_faixa": "energia observada baixa",
        "risco_faixa": "risco publico muito alto",
        "priority_class": "monitoramento recomendado"
      }
    },
    {
      "type": "Feature",
      "geometry": {
        "type": "Point",
        "coordinates": [
          -53.8,
          -10.8
        ]
      },
      "properties": {
        "municipio": "MARCELÂNDIA",
        "estado": "MATO GROSSO",
        "bioma": "Amazônia",
        "periodo": "junho de 2026",
        "seca_faixa": "seca relevante",
        "focos_faixa": "focos elevados",
        "energia_faixa": "energia observada alta",
        "risco_faixa": "risco publico baixo",
        "priority_class": "monitoramento recomendado"
      }
    },
    {
      "type": "Feature",
      "geometry": {
        "type": "Point",
        "coordinates": [
          -50,
          -10.8
        ]
      },
      "properties": {
        "municipio": "LAGOA DA CONFUSÃO",
        "estado": "TOCANTINS",
        "bioma": "Cerrado",
        "periodo": "junho de 2026",
        "seca_faixa": "seca relevante",
        "focos_faixa": "focos elevados",
        "energia_faixa": "energia observada moderada",
        "risco_faixa": "risco publico muito alto",
        "priority_class": "prioridade preventiva"
      }
    },
    {
      "type": "Feature",
      "geometry": {
        "type": "Point",
        "coordinates": [
          -51,
          -11.1
        ]
      },
      "properties": {
        "municipio": "LUCIARA",
        "estado": "MATO GROSSO",
        "bioma": "Cerrado",
        "periodo": "junho de 2026",
        "seca_faixa": "seca relevante",
        "focos_faixa": "focos relevantes",
        "energia_faixa": "energia observada moderada",
        "risco_faixa": "risco publico muito alto",
        "priority_class": "prioridade preventiva"
      }
    },
    {
      "type": "Feature",
      "geometry": {
        "type": "Point",
        "coordinates": [
          -51.9,
          -10.4
        ]
      },
      "properties": {
        "municipio": "CONFRESA",
        "estado": "MATO GROSSO",
        "bioma": "Amazônia",
        "periodo": "junho de 2026",
        "seca_faixa": "seca relevante",
        "focos_faixa": "focos relevantes",
        "energia_faixa": "energia observada baixa",
        "risco_faixa": "risco publico muito alto",
        "priority_class": "prioridade preventiva"
      }
    },
    {
      "type": "Feature",
      "geometry": {
        "type": "Point",
        "coordinates": [
          -52.2,
          -10.1
        ]
      },
      "properties": {
        "municipio": "SANTA CRUZ DO XINGU",
        "estado": "MATO GROSSO",
        "bioma": "Amazônia",
        "periodo": "junho de 2026",
        "seca_faixa": "seca relevante",
        "focos_faixa": "focos relevantes",
        "energia_faixa": "energia observada moderada",
        "risco_faixa": "risco publico baixo",
        "priority_class": "monitoramento recomendado"
      }
    },
    {
      "type": "Feature",
      "geometry": {
        "type": "Point",
        "coordinates": [
          -48.3,
          -9.5
        ]
      },
      "properties": {
        "municipio": "TOCANTÍNIA",
        "estado": "TOCANTINS",
        "bioma": "Cerrado",
        "periodo": "junho de 2026",
        "seca_faixa": "seca relevante",
        "focos_faixa": "focos relevantes",
        "energia_faixa": "energia observada moderada",
        "risco_faixa": "risco publico alto",
        "priority_class": "prioridade preventiva"
      }
    },
    {
      "type": "Feature",
      "geometry": {
        "type": "Point",
        "coordinates": [
          -53.2,
          -12.8
        ]
      },
      "properties": {
        "municipio": "GAÚCHA DO NORTE",
        "estado": "MATO GROSSO",
        "bioma": "Amazônia",
        "periodo": "junho de 2026",
        "seca_faixa": "seca relevante",
        "focos_faixa": "focos elevados",
        "energia_faixa": "energia observada alta",
        "risco_faixa": "risco publico moderado",
        "priority_class": "monitoramento recomendado"
      }
    },
    {
      "type": "Feature",
      "geometry": {
        "type": "Point",
        "coordinates": [
          -46.5,
          -15.4
        ]
      },
      "properties": {
        "municipio": "BURITIS",
        "estado": "MINAS GERAIS",
        "bioma": "Cerrado",
        "periodo": "junho de 2026",
        "seca_faixa": "seca relevante",
        "focos_faixa": "focos relevantes",
        "energia_faixa": "energia observada moderada",
        "risco_faixa": "risco publico muito alto",
        "priority_class": "prioridade preventiva"
      }
    },
    {
      "type": "Feature",
      "geometry": {
        "type": "Point",
        "coordinates": [
          -48.4,
          -9.6
        ]
      },
      "properties": {
        "municipio": "MIRACEMA DO TOCANTINS",
        "estado": "TOCANTINS",
        "bioma": "Cerrado",
        "periodo": "junho de 2026",
        "seca_faixa": "seca relevante",
        "focos_faixa": "focos pontuais",
        "energia_faixa": "energia observada baixa",
        "risco_faixa": "risco publico alto",
        "priority_class": "monitoramento recomendado"
      }
    },
    {
      "type": "Feature",
      "geometry": {
        "type": "Point",
        "coordinates": [
          -52,
          -14.2
        ]
      },
      "properties": {
        "municipio": "NOVA NAZARÉ",
        "estado": "MATO GROSSO",
        "bioma": "Cerrado",
        "periodo": "junho de 2026",
        "seca_faixa": "seca relevante",
        "focos_faixa": "focos moderados",
        "energia_faixa": "energia observada alta",
        "risco_faixa": "risco publico muito alto",
        "priority_class": "prioridade preventiva"
      }
    },
    {
      "type": "Feature",
      "geometry": {
        "type": "Point",
        "coordinates": [
          -48.6,
          -9.4
        ]
      },
      "properties": {
        "municipio": "MIRANORTE",
        "estado": "TOCANTINS",
        "bioma": "Cerrado",
        "periodo": "junho de 2026",
        "seca_faixa": "seca relevante",
        "focos_faixa": "focos pontuais",
        "energia_faixa": "energia observada baixa",
        "risco_faixa": "risco publico muito alto",
        "priority_class": "monitoramento recomendado"
      }
    },
    {
      "type": "Feature",
      "geometry": {
        "type": "Point",
        "coordinates": [
          -49.4,
          -10.8
        ]
      },
      "properties": {
        "municipio": "SANTA RITA DO TOCANTINS",
        "estado": "TOCANTINS",
        "bioma": "Cerrado",
        "periodo": "junho de 2026",
        "seca_faixa": "seca relevante",
        "focos_faixa": "focos moderados",
        "energia_faixa": "energia observada baixa",
        "risco_faixa": "risco publico alto",
        "priority_class": "prioridade preventiva"
      }
    },
    {
      "type": "Feature",
      "geometry": {
        "type": "Point",
        "coordinates": [
          -41,
          -9
        ]
      },
      "properties": {
        "municipio": "CASA NOVA",
        "estado": "BAHIA",
        "bioma": "Caatinga",
        "periodo": "junho de 2026",
        "seca_faixa": "seca relevante",
        "focos_faixa": "focos pontuais",
        "energia_faixa": "energia observada baixa",
        "risco_faixa": "risco publico muito alto",
        "priority_class": "monitoramento recomendado"
      }
    },
    {
      "type": "Feature",
      "geometry": {
        "type": "Point",
        "coordinates": [
          -49.1,
          -8.8
        ]
      },
      "properties": {
        "municipio": "GOIANORTE",
        "estado": "TOCANTINS",
        "bioma": "Cerrado",
        "periodo": "junho de 2026",
        "seca_faixa": "seca relevante",
        "focos_faixa": "focos pontuais",
        "energia_faixa": "energia observada baixa",
        "risco_faixa": "risco publico muito alto",
        "priority_class": "monitoramento recomendado"
      }
    },
    {
      "type": "Feature",
      "geometry": {
        "type": "Point",
        "coordinates": [
          -46.9,
          -9.7
        ]
      },
      "properties": {
        "municipio": "LIZARDA",
        "estado": "TOCANTINS",
        "bioma": "Cerrado",
        "periodo": "junho de 2026",
        "seca_faixa": "seca relevante",
        "focos_faixa": "focos elevados",
        "energia_faixa": "energia observada moderada",
        "risco_faixa": "risco publico muito alto",
        "priority_class": "prioridade preventiva"
      }
    },
    {
      "type": "Feature",
      "geometry": {
        "type": "Point",
        "coordinates": [
          -48.2,
          -10.2
        ]
      },
      "properties": {
        "municipio": "PALMAS",
        "estado": "TOCANTINS",
        "bioma": "Cerrado",
        "periodo": "junho de 2026",
        "seca_faixa": "seca relevante",
        "focos_faixa": "focos moderados",
        "energia_faixa": "energia observada baixa",
        "risco_faixa": "risco publico alto",
        "priority_class": "prioridade preventiva"
      }
    },
    {
      "type": "Feature",
      "geometry": {
        "type": "Point",
        "coordinates": [
          -52,
          -12.1
        ]
      },
      "properties": {
        "municipio": "BOM JESUS DO ARAGUAIA",
        "estado": "MATO GROSSO",
        "bioma": "Amazônia",
        "periodo": "junho de 2026",
        "seca_faixa": "seca relevante",
        "focos_faixa": "focos elevados",
        "energia_faixa": "energia observada alta",
        "risco_faixa": "risco publico moderado",
        "priority_class": "monitoramento recomendado"
      }
    },
    {
      "type": "Feature",
      "geometry": {
        "type": "Point",
        "coordinates": [
          -47.5,
          -10.4
        ]
      },
      "properties": {
        "municipio": "LAGOA DO TOCANTINS",
        "estado": "TOCANTINS",
        "bioma": "Cerrado",
        "periodo": "junho de 2026",
        "seca_faixa": "seca relevante",
        "focos_faixa": "focos relevantes",
        "energia_faixa": "energia observada moderada",
        "risco_faixa": "risco publico muito alto",
        "priority_class": "prioridade preventiva"
      }
    },
    {
      "type": "Feature",
      "geometry": {
        "type": "Point",
        "coordinates": [
          -45,
          -6.8
        ]
      },
      "properties": {
        "municipio": "LORETO",
        "estado": "MARANHÃO",
        "bioma": "Cerrado",
        "periodo": "junho de 2026",
        "seca_faixa": "seca relevante",
        "focos_faixa": "focos moderados",
        "energia_faixa": "energia observada moderada",
        "risco_faixa": "risco publico muito alto",
        "priority_class": "prioridade preventiva"
      }
    },
    {
      "type": "Feature",
      "geometry": {
        "type": "Point",
        "coordinates": [
          -52.6,
          -11.5
        ]
      },
      "properties": {
        "municipio": "SÃO FÉLIX DO ARAGUAIA",
        "estado": "MATO GROSSO",
        "bioma": "Amazônia",
        "periodo": "junho de 2026",
        "seca_faixa": "atencao climatica",
        "focos_faixa": "focos elevados",
        "energia_faixa": "energia observada alta",
        "risco_faixa": "risco publico baixo",
        "priority_class": "monitoramento recomendado"
      }
    },
    {
      "type": "Feature",
      "geometry": {
        "type": "Point",
        "coordinates": [
          -48.3,
          -8.7
        ]
      },
      "properties": {
        "municipio": "GUARAÍ",
        "estado": "TOCANTINS",
        "bioma": "Cerrado",
        "periodo": "junho de 2026",
        "seca_faixa": "atencao climatica",
        "focos_faixa": "focos elevados",
        "energia_faixa": "energia observada alta",
        "risco_faixa": "risco publico moderado",
        "priority_class": "monitoramento recomendado"
      }
    },
    {
      "type": "Feature",
      "geometry": {
        "type": "Point",
        "coordinates": [
          -46.8,
          -8.3
        ]
      },
      "properties": {
        "municipio": "CAMPOS LINDOS",
        "estado": "TOCANTINS",
        "bioma": "Cerrado",
        "periodo": "junho de 2026",
        "seca_faixa": "atencao climatica",
        "focos_faixa": "focos relevantes",
        "energia_faixa": "energia observada moderada",
        "risco_faixa": "risco publico muito alto",
        "priority_class": "monitoramento recomendado"
      }
    },
    {
      "type": "Feature",
      "geometry": {
        "type": "Point",
        "coordinates": [
          -45.1,
          -6.5
        ]
      },
      "properties": {
        "municipio": "MIRADOR",
        "estado": "MARANHÃO",
        "bioma": "Cerrado",
        "periodo": "junho de 2026",
        "seca_faixa": "atencao climatica",
        "focos_faixa": "focos moderados",
        "energia_faixa": "energia observada moderada",
        "risco_faixa": "risco publico alto",
        "priority_class": "monitoramento recomendado"
      }
    },
    {
      "type": "Feature",
      "geometry": {
        "type": "Point",
        "coordinates": [
          -47.2,
          -8.6
        ]
      },
      "properties": {
        "municipio": "RECURSOLÂNDIA",
        "estado": "TOCANTINS",
        "bioma": "Cerrado",
        "periodo": "junho de 2026",
        "seca_faixa": "atencao climatica",
        "focos_faixa": "focos pontuais",
        "energia_faixa": "energia observada baixa",
        "risco_faixa": "risco publico muito alto",
        "priority_class": "monitoramento recomendado"
      }
    },
    {
      "type": "Feature",
      "geometry": {
        "type": "Point",
        "coordinates": [
          -48.2,
          -8.3
        ]
      },
      "properties": {
        "municipio": "TUPIRATINS",
        "estado": "TOCANTINS",
        "bioma": "Cerrado",
        "periodo": "junho de 2026",
        "seca_faixa": "atencao climatica",
        "focos_faixa": "focos relevantes",
        "energia_faixa": "energia observada baixa",
        "risco_faixa": "risco publico alto",
        "priority_class": "monitoramento recomendado"
      }
    },
    {
      "type": "Feature",
      "geometry": {
        "type": "Point",
        "coordinates": [
          -47.2,
          -7.2
        ]
      },
      "properties": {
        "municipio": "CAROLINA",
        "estado": "MARANHÃO",
        "bioma": "Cerrado",
        "periodo": "junho de 2026",
        "seca_faixa": "atencao climatica",
        "focos_faixa": "focos relevantes",
        "energia_faixa": "energia observada baixa",
        "risco_faixa": "risco publico alto",
        "priority_class": "monitoramento recomendado"
      }
    },
    {
      "type": "Feature",
      "geometry": {
        "type": "Point",
        "coordinates": [
          -51.5,
          -8.5
        ]
      },
      "properties": {
        "municipio": "CUMARU DO NORTE",
        "estado": "PARÁ",
        "bioma": "Amazônia",
        "periodo": "junho de 2026",
        "seca_faixa": "atencao climatica",
        "focos_faixa": "focos relevantes",
        "energia_faixa": "energia observada alta",
        "risco_faixa": "risco publico moderado",
        "priority_class": "monitoramento recomendado"
      }
    },
    {
      "type": "Feature",
      "geometry": {
        "type": "Point",
        "coordinates": [
          -49.6,
          -11.4
        ]
      },
      "properties": {
        "municipio": "DUERÉ",
        "estado": "TOCANTINS",
        "bioma": "Cerrado",
        "periodo": "junho de 2026",
        "seca_faixa": "atencao climatica",
        "focos_faixa": "focos moderados",
        "energia_faixa": "energia observada moderada",
        "risco_faixa": "risco publico muito alto",
        "priority_class": "monitoramento recomendado"
      }
    },
    {
      "type": "Feature",
      "geometry": {
        "type": "Point",
        "coordinates": [
          -47.6,
          -8.2
        ]
      },
      "properties": {
        "municipio": "GOIATINS",
        "estado": "TOCANTINS",
        "bioma": "Cerrado",
        "periodo": "junho de 2026",
        "seca_faixa": "atencao climatica",
        "focos_faixa": "focos relevantes",
        "energia_faixa": "energia observada moderada",
        "risco_faixa": "risco publico moderado",
        "priority_class": "monitoramento recomendado"
      }
    },
    {
      "type": "Feature",
      "geometry": {
        "type": "Point",
        "coordinates": [
          -45.9,
          -16.6
        ]
      },
      "properties": {
        "municipio": "SANTA FÉ DE MINAS",
        "estado": "MINAS GERAIS",
        "bioma": "Cerrado",
        "periodo": "junho de 2026",
        "seca_faixa": "atencao climatica",
        "focos_faixa": "focos moderados",
        "energia_faixa": "energia observada baixa",
        "risco_faixa": "risco publico muito alto",
        "priority_class": "monitoramento recomendado"
      }
    },
    {
      "type": "Feature",
      "geometry": {
        "type": "Point",
        "coordinates": [
          -49,
          -9.5
        ]
      },
      "properties": {
        "municipio": "DOIS IRMÃOS DO TOCANTINS",
        "estado": "TOCANTINS",
        "bioma": "Cerrado",
        "periodo": "junho de 2026",
        "seca_faixa": "atencao climatica",
        "focos_faixa": "focos pontuais",
        "energia_faixa": "energia observada baixa",
        "risco_faixa": "risco publico moderado",
        "priority_class": "monitoramento recomendado"
      }
    },
    {
      "type": "Feature",
      "geometry": {
        "type": "Point",
        "coordinates": [
          -53.8,
          -13.7
        ]
      },
      "properties": {
        "municipio": "PARANATINGA",
        "estado": "MATO GROSSO",
        "bioma": "Cerrado",
        "periodo": "junho de 2026",
        "seca_faixa": "atencao climatica",
        "focos_faixa": "focos elevados",
        "energia_faixa": "energia observada moderada",
        "risco_faixa": "risco publico alto",
        "priority_class": "monitoramento recomendado"
      }
    },
    {
      "type": "Feature",
      "geometry": {
        "type": "Point",
        "coordinates": [
          -49.8,
          -7.4
        ]
      },
      "properties": {
        "municipio": "RIO MARIA",
        "estado": "PARÁ",
        "bioma": "Amazônia",
        "periodo": "junho de 2026",
        "seca_faixa": "atencao climatica",
        "focos_faixa": "focos relevantes",
        "energia_faixa": "energia observada moderada",
        "risco_faixa": "risco publico alto",
        "priority_class": "monitoramento recomendado"
      }
    },
    {
      "type": "Feature",
      "geometry": {
        "type": "Point",
        "coordinates": [
          -47.5,
          -7.6
        ]
      },
      "properties": {
        "municipio": "BARRA DO OURO",
        "estado": "TOCANTINS",
        "bioma": "Cerrado",
        "periodo": "junho de 2026",
        "seca_faixa": "atencao climatica",
        "focos_faixa": "focos moderados",
        "energia_faixa": "energia observada baixa",
        "risco_faixa": "risco publico moderado",
        "priority_class": "monitoramento recomendado"
      }
    },
    {
      "type": "Feature",
      "geometry": {
        "type": "Point",
        "coordinates": [
          -49.2,
          -11.2
        ]
      },
      "properties": {
        "municipio": "CRIXÁS DO TOCANTINS",
        "estado": "TOCANTINS",
        "bioma": "Cerrado",
        "periodo": "junho de 2026",
        "seca_faixa": "atencao climatica",
        "focos_faixa": "focos pontuais",
        "energia_faixa": "energia observada baixa",
        "risco_faixa": "risco publico alto",
        "priority_class": "monitoramento recomendado"
      }
    },
    {
      "type": "Feature",
      "geometry": {
        "type": "Point",
        "coordinates": [
          -45.9,
          -17.8
        ]
      },
      "properties": {
        "municipio": "JOÃO PINHEIRO",
        "estado": "MINAS GERAIS",
        "bioma": "Cerrado",
        "periodo": "junho de 2026",
        "seca_faixa": "atencao climatica",
        "focos_faixa": "focos pontuais",
        "energia_faixa": "energia observada baixa",
        "risco_faixa": "risco publico muito alto",
        "priority_class": "monitoramento recomendado"
      }
    },
    {
      "type": "Feature",
      "geometry": {
        "type": "Point",
        "coordinates": [
          -49.7,
          -7.4
        ]
      },
      "properties": {
        "municipio": "FLORESTA DO ARAGUAIA",
        "estado": "PARÁ",
        "bioma": "Amazônia",
        "periodo": "junho de 2026",
        "seca_faixa": "atencao climatica",
        "focos_faixa": "focos pontuais",
        "energia_faixa": "energia observada baixa",
        "risco_faixa": "risco publico muito alto",
        "priority_class": "monitoramento recomendado"
      }
    },
    {
      "type": "Feature",
      "geometry": {
        "type": "Point",
        "coordinates": [
          -46.5,
          -17.6
        ]
      },
      "properties": {
        "municipio": "LAGOA GRANDE",
        "estado": "MINAS GERAIS",
        "bioma": "Cerrado",
        "periodo": "junho de 2026",
        "seca_faixa": "atencao climatica",
        "focos_faixa": "focos pontuais",
        "energia_faixa": "energia observada baixa",
        "risco_faixa": "risco publico alto",
        "priority_class": "monitoramento recomendado"
      }
    },
    {
      "type": "Feature",
      "geometry": {
        "type": "Point",
        "coordinates": [
          -43.5,
          -5.9
        ]
      },
      "properties": {
        "municipio": "LAGOA DO MATO",
        "estado": "MARANHÃO",
        "bioma": "Cerrado",
        "periodo": "junho de 2026",
        "seca_faixa": "atencao climatica",
        "focos_faixa": "focos pontuais",
        "energia_faixa": "energia observada baixa",
        "risco_faixa": "risco publico muito alto",
        "priority_class": "monitoramento recomendado"
      }
    },
    {
      "type": "Feature",
      "geometry": {
        "type": "Point",
        "coordinates": [
          -54.7,
          -12.7
        ]
      },
      "properties": {
        "municipio": "NOVA UBIRATÃ",
        "estado": "MATO GROSSO",
        "bioma": "Amazônia",
        "periodo": "junho de 2026",
        "seca_faixa": "atencao climatica",
        "focos_faixa": "focos elevados",
        "energia_faixa": "energia observada alta",
        "risco_faixa": "risco publico moderado",
        "priority_class": "monitoramento recomendado"
      }
    },
    {
      "type": "Feature",
      "geometry": {
        "type": "Point",
        "coordinates": [
          -47.2,
          -6.9
        ]
      },
      "properties": {
        "municipio": "ESTREITO",
        "estado": "MARANHÃO",
        "bioma": "Cerrado",
        "periodo": "junho de 2026",
        "seca_faixa": "atencao climatica",
        "focos_faixa": "focos elevados",
        "energia_faixa": "energia observada moderada",
        "risco_faixa": "risco publico muito alto",
        "priority_class": "monitoramento recomendado"
      }
    },
    {
      "type": "Feature",
      "geometry": {
        "type": "Point",
        "coordinates": [
          -48,
          -6.9
        ]
      },
      "properties": {
        "municipio": "WANDERLÂNDIA",
        "estado": "TOCANTINS",
        "bioma": "Cerrado",
        "periodo": "junho de 2026",
        "seca_faixa": "atencao climatica",
        "focos_faixa": "focos relevantes",
        "energia_faixa": "energia observada alta",
        "risco_faixa": "risco publico alto",
        "priority_class": "monitoramento recomendado"
      }
    },
    {
      "type": "Feature",
      "geometry": {
        "type": "Point",
        "coordinates": [
          -52.5,
          -11.8
        ]
      },
      "properties": {
        "municipio": "QUERÊNCIA",
        "estado": "MATO GROSSO",
        "bioma": "Amazônia",
        "periodo": "junho de 2026",
        "seca_faixa": "atencao climatica",
        "focos_faixa": "focos relevantes",
        "energia_faixa": "energia observada baixa",
        "risco_faixa": "risco publico baixo",
        "priority_class": "monitoramento recomendado"
      }
    },
    {
      "type": "Feature",
      "geometry": {
        "type": "Point",
        "coordinates": [
          -66.4,
          -9.2
        ]
      },
      "properties": {
        "municipio": "LÁBREA",
        "estado": "AMAZONAS",
        "bioma": "Amazônia",
        "periodo": "junho de 2026",
        "seca_faixa": "atencao climatica",
        "focos_faixa": "focos relevantes",
        "energia_faixa": "energia observada baixa",
        "risco_faixa": "risco publico moderado",
        "priority_class": "monitoramento recomendado"
      }
    },
    {
      "type": "Feature",
      "geometry": {
        "type": "Point",
        "coordinates": [
          -48,
          -7.1
        ]
      },
      "properties": {
        "municipio": "BABAÇULÂNDIA",
        "estado": "TOCANTINS",
        "bioma": "Cerrado",
        "periodo": "junho de 2026",
        "seca_faixa": "atencao climatica",
        "focos_faixa": "focos moderados",
        "energia_faixa": "energia observada alta",
        "risco_faixa": "risco publico alto",
        "priority_class": "monitoramento recomendado"
      }
    },
    {
      "type": "Feature",
      "geometry": {
        "type": "Point",
        "coordinates": [
          -47.7,
          -15.6
        ]
      },
      "properties": {
        "municipio": "BRASÍLIA",
        "estado": "DISTRITO FEDERAL",
        "bioma": "Cerrado",
        "periodo": "junho de 2026",
        "seca_faixa": "atencao climatica",
        "focos_faixa": "focos pontuais",
        "energia_faixa": "energia observada baixa",
        "risco_faixa": "risco publico muito alto",
        "priority_class": "monitoramento recomendado"
      }
    },
    {
      "type": "Feature",
      "geometry": {
        "type": "Point",
        "coordinates": [
          -56.2,
          -9.7
        ]
      },
      "properties": {
        "municipio": "ALTA FLORESTA",
        "estado": "MATO GROSSO",
        "bioma": "Amazônia",
        "periodo": "junho de 2026",
        "seca_faixa": "atencao climatica",
        "focos_faixa": "focos pontuais",
        "energia_faixa": "energia observada moderada",
        "risco_faixa": "risco publico muito alto",
        "priority_class": "monitoramento recomendado"
      }
    },
    {
      "type": "Feature",
      "geometry": {
        "type": "Point",
        "coordinates": [
          -58.5,
          -12.4
        ]
      },
      "properties": {
        "municipio": "SAPEZAL",
        "estado": "MATO GROSSO",
        "bioma": "Cerrado",
        "periodo": "junho de 2026",
        "seca_faixa": "atencao climatica",
        "focos_faixa": "focos elevados",
        "energia_faixa": "energia observada alta",
        "risco_faixa": "risco publico baixo",
        "priority_class": "monitoramento recomendado"
      }
    },
    {
      "type": "Feature",
      "geometry": {
        "type": "Point",
        "coordinates": [
          -58.4,
          -12.4
        ]
      },
      "properties": {
        "municipio": "BRASNORTE",
        "estado": "MATO GROSSO",
        "bioma": "Cerrado",
        "periodo": "junho de 2026",
        "seca_faixa": "atencao climatica",
        "focos_faixa": "focos elevados",
        "energia_faixa": "energia observada alta",
        "risco_faixa": "risco publico baixo",
        "priority_class": "monitoramento recomendado"
      }
    },
    {
      "type": "Feature",
      "geometry": {
        "type": "Point",
        "coordinates": [
          -58.4,
          -16.3
        ]
      },
      "properties": {
        "municipio": "CÁCERES",
        "estado": "MATO GROSSO",
        "bioma": "Pantanal",
        "periodo": "junho de 2026",
        "seca_faixa": "atencao climatica",
        "focos_faixa": "focos elevados",
        "energia_faixa": "energia observada alta",
        "risco_faixa": "risco publico moderado",
        "priority_class": "monitoramento recomendado"
      }
    },
    {
      "type": "Feature",
      "geometry": {
        "type": "Point",
        "coordinates": [
          -58.9,
          -14.2
        ]
      },
      "properties": {
        "municipio": "TANGARÁ DA SERRA",
        "estado": "MATO GROSSO",
        "bioma": "Cerrado",
        "periodo": "junho de 2026",
        "seca_faixa": "atencao climatica",
        "focos_faixa": "focos elevados",
        "energia_faixa": "energia observada alta",
        "risco_faixa": "risco publico muito alto",
        "priority_class": "monitoramento recomendado"
      }
    },
    {
      "type": "Feature",
      "geometry": {
        "type": "Point",
        "coordinates": [
          -59.1,
          -14.5
        ]
      },
      "properties": {
        "municipio": "CONQUISTA D'OESTE",
        "estado": "MATO GROSSO",
        "bioma": "Cerrado",
        "periodo": "junho de 2026",
        "seca_faixa": "atencao climatica",
        "focos_faixa": "focos relevantes",
        "energia_faixa": "energia observada alta",
        "risco_faixa": "risco publico alto",
        "priority_class": "monitoramento recomendado"
      }
    },
    {
      "type": "Feature",
      "geometry": {
        "type": "Point",
        "coordinates": [
          -59.2,
          -12.1
        ]
      },
      "properties": {
        "municipio": "JUÍNA",
        "estado": "MATO GROSSO",
        "bioma": "Cerrado",
        "periodo": "junho de 2026",
        "seca_faixa": "atencao climatica",
        "focos_faixa": "focos relevantes",
        "energia_faixa": "energia observada moderada",
        "risco_faixa": "risco publico baixo",
        "priority_class": "monitoramento recomendado"
      }
    },
    {
      "type": "Feature",
      "geometry": {
        "type": "Point",
        "coordinates": [
          -46.9,
          -17
        ]
      },
      "properties": {
        "municipio": "PARACATU",
        "estado": "MINAS GERAIS",
        "bioma": "Cerrado",
        "periodo": "junho de 2026",
        "seca_faixa": "atencao climatica",
        "focos_faixa": "focos moderados",
        "energia_faixa": "energia observada baixa",
        "risco_faixa": "risco publico muito alto",
        "priority_class": "monitoramento recomendado"
      }
    },
    {
      "type": "Feature",
      "geometry": {
        "type": "Point",
        "coordinates": [
          -54.4,
          -7.4
        ]
      },
      "properties": {
        "municipio": "ALTAMIRA",
        "estado": "PARÁ",
        "bioma": "Amazônia",
        "periodo": "junho de 2026",
        "seca_faixa": "atencao climatica",
        "focos_faixa": "focos moderados",
        "energia_faixa": "energia observada baixa",
        "risco_faixa": "risco publico moderado",
        "priority_class": "monitoramento recomendado"
      }
    },
    {
      "type": "Feature",
      "geometry": {
        "type": "Point",
        "coordinates": [
          -47,
          -5.2
        ]
      },
      "properties": {
        "municipio": "JOÃO LISBOA",
        "estado": "MARANHÃO",
        "bioma": "Amazônia",
        "periodo": "junho de 2026",
        "seca_faixa": "atencao climatica",
        "focos_faixa": "focos moderados",
        "energia_faixa": "energia observada alta",
        "risco_faixa": "risco publico muito alto",
        "priority_class": "monitoramento recomendado"
      }
    },
    {
      "type": "Feature",
      "geometry": {
        "type": "Point",
        "coordinates": [
          -59.4,
          -10
        ]
      },
      "properties": {
        "municipio": "ARIPUANÃ",
        "estado": "MATO GROSSO",
        "bioma": "Amazônia",
        "periodo": "junho de 2026",
        "seca_faixa": "atencao climatica",
        "focos_faixa": "focos elevados",
        "energia_faixa": "energia observada alta",
        "risco_faixa": "risco publico baixo",
        "priority_class": "monitoramento recomendado"
      }
    },
    {
      "type": "Feature",
      "geometry": {
        "type": "Point",
        "coordinates": [
          -61.5,
          -8.4
        ]
      },
      "properties": {
        "municipio": "NOVO ARIPUANÃ",
        "estado": "AMAZONAS",
        "bioma": "Amazônia",
        "periodo": "junho de 2026",
        "seca_faixa": "atencao climatica",
        "focos_faixa": "focos elevados",
        "energia_faixa": "energia observada alta",
        "risco_faixa": "risco publico muito alto",
        "priority_class": "monitoramento recomendado"
      }
    },
    {
      "type": "Feature",
      "geometry": {
        "type": "Point",
        "coordinates": [
          -45.3,
          -6.1
        ]
      },
      "properties": {
        "municipio": "FERNANDO FALCÃO",
        "estado": "MARANHÃO",
        "bioma": "Cerrado",
        "periodo": "junho de 2026",
        "seca_faixa": "atencao climatica",
        "focos_faixa": "focos elevados",
        "energia_faixa": "energia observada moderada",
        "risco_faixa": "risco publico moderado",
        "priority_class": "monitoramento recomendado"
      }
    },
    {
      "type": "Feature",
      "geometry": {
        "type": "Point",
        "coordinates": [
          -56.5,
          -11.2
        ]
      },
      "properties": {
        "municipio": "TABAPORÃ",
        "estado": "MATO GROSSO",
        "bioma": "Amazônia",
        "periodo": "junho de 2026",
        "seca_faixa": "atencao climatica",
        "focos_faixa": "focos relevantes",
        "energia_faixa": "energia observada baixa",
        "risco_faixa": "risco publico moderado",
        "priority_class": "monitoramento recomendado"
      }
    },
    {
      "type": "Feature",
      "geometry": {
        "type": "Point",
        "coordinates": [
          -58,
          -9.2
        ]
      },
      "properties": {
        "municipio": "APIACÁS",
        "estado": "MATO GROSSO",
        "bioma": "Amazônia",
        "periodo": "junho de 2026",
        "seca_faixa": "atencao climatica",
        "focos_faixa": "focos relevantes",
        "energia_faixa": "energia observada alta",
        "risco_faixa": "risco publico baixo",
        "priority_class": "monitoramento recomendado"
      }
    },
    {
      "type": "Feature",
      "geometry": {
        "type": "Point",
        "coordinates": [
          -56.9,
          -11.7
        ]
      },
      "properties": {
        "municipio": "PORTO DOS GAÚCHOS",
        "estado": "MATO GROSSO",
        "bioma": "Amazônia",
        "periodo": "junho de 2026",
        "seca_faixa": "atencao climatica",
        "focos_faixa": "focos relevantes",
        "energia_faixa": "energia observada baixa",
        "risco_faixa": "risco publico moderado",
        "priority_class": "monitoramento recomendado"
      }
    },
    {
      "type": "Feature",
      "geometry": {
        "type": "Point",
        "coordinates": [
          -59.9,
          -15.2
        ]
      },
      "properties": {
        "municipio": "VILA BELA DA SANTÍSSIMA TRINDADE",
        "estado": "MATO GROSSO",
        "bioma": "Amazônia",
        "periodo": "junho de 2026",
        "seca_faixa": "atencao climatica",
        "focos_faixa": "focos relevantes",
        "energia_faixa": "energia observada moderada",
        "risco_faixa": "risco publico moderado",
        "priority_class": "monitoramento recomendado"
      }
    },
    {
      "type": "Feature",
      "geometry": {
        "type": "Point",
        "coordinates": [
          -64.2,
          -9.1
        ]
      },
      "properties": {
        "municipio": "PORTO VELHO",
        "estado": "RONDÔNIA",
        "bioma": "Amazônia",
        "periodo": "junho de 2026",
        "seca_faixa": "atencao climatica",
        "focos_faixa": "focos relevantes",
        "energia_faixa": "energia observada moderada",
        "risco_faixa": "risco publico alto",
        "priority_class": "monitoramento recomendado"
      }
    },
    {
      "type": "Feature",
      "geometry": {
        "type": "Point",
        "coordinates": [
          -67.8,
          -8.8
        ]
      },
      "properties": {
        "municipio": "BOCA DO ACRE",
        "estado": "AMAZONAS",
        "bioma": "Amazônia",
        "periodo": "junho de 2026",
        "seca_faixa": "atencao climatica",
        "focos_faixa": "focos relevantes",
        "energia_faixa": "energia observada moderada",
        "risco_faixa": "risco publico baixo",
        "priority_class": "monitoramento recomendado"
      }
    },
    {
      "type": "Feature",
      "geometry": {
        "type": "Point",
        "coordinates": [
          -55.2,
          -19.1
        ]
      },
      "properties": {
        "municipio": "RIO VERDE DE MATO GROSSO",
        "estado": "MATO GROSSO DO SUL",
        "bioma": "Pantanal",
        "periodo": "junho de 2026",
        "seca_faixa": "atencao climatica",
        "focos_faixa": "focos moderados",
        "energia_faixa": "energia observada baixa",
        "risco_faixa": "risco publico muito alto",
        "priority_class": "monitoramento recomendado"
      }
    },
    {
      "type": "Feature",
      "geometry": {
        "type": "Point",
        "coordinates": [
          -61.5,
          -8.5
        ]
      },
      "properties": {
        "municipio": "MANICORÉ",
        "estado": "AMAZONAS",
        "bioma": "Amazônia",
        "periodo": "junho de 2026",
        "seca_faixa": "atencao climatica",
        "focos_faixa": "focos moderados",
        "energia_faixa": "energia observada alta",
        "risco_faixa": "risco publico muito alto",
        "priority_class": "monitoramento recomendado"
      }
    },
    {
      "type": "Feature",
      "geometry": {
        "type": "Point",
        "coordinates": [
          -44,
          -5.5
        ]
      },
      "properties": {
        "municipio": "FORTUNA",
        "estado": "MARANHÃO",
        "bioma": "Cerrado",
        "periodo": "junho de 2026",
        "seca_faixa": "atencao climatica",
        "focos_faixa": "focos moderados",
        "energia_faixa": "energia observada moderada",
        "risco_faixa": "risco publico baixo",
        "priority_class": "monitoramento recomendado"
      }
    },
    {
      "type": "Feature",
      "geometry": {
        "type": "Point",
        "coordinates": [
          -55.9,
          -15.5
        ]
      },
      "properties": {
        "municipio": "CUIABÁ",
        "estado": "MATO GROSSO",
        "bioma": "Cerrado",
        "periodo": "junho de 2026",
        "seca_faixa": "atencao climatica",
        "focos_faixa": "focos moderados",
        "energia_faixa": "energia observada baixa",
        "risco_faixa": "risco publico moderado",
        "priority_class": "monitoramento recomendado"
      }
    },
    {
      "type": "Feature",
      "geometry": {
        "type": "Point",
        "coordinates": [
          -54.6,
          -19.7
        ]
      },
      "properties": {
        "municipio": "BANDEIRANTES",
        "estado": "MATO GROSSO DO SUL",
        "bioma": "Cerrado",
        "periodo": "junho de 2026",
        "seca_faixa": "atencao climatica",
        "focos_faixa": "focos moderados",
        "energia_faixa": "energia observada moderada",
        "risco_faixa": "risco publico muito alto",
        "priority_class": "monitoramento recomendado"
      }
    },
    {
      "type": "Feature",
      "geometry": {
        "type": "Point",
        "coordinates": [
          -51.1,
          -12.1
        ]
      },
      "properties": {
        "municipio": "NOVO SANTO ANTÔNIO",
        "estado": "MATO GROSSO",
        "bioma": "Cerrado",
        "periodo": "junho de 2026",
        "seca_faixa": "atencao climatica",
        "focos_faixa": "focos moderados",
        "energia_faixa": "energia observada moderada",
        "risco_faixa": "risco publico muito alto",
        "priority_class": "monitoramento recomendado"
      }
    },
    {
      "type": "Feature",
      "geometry": {
        "type": "Point",
        "coordinates": [
          -49.8,
          -19.1
        ]
      },
      "properties": {
        "municipio": "GURINHATÃ",
        "estado": "MINAS GERAIS",
        "bioma": "Cerrado",
        "periodo": "junho de 2026",
        "seca_faixa": "atencao climatica",
        "focos_faixa": "focos pontuais",
        "energia_faixa": "energia observada baixa",
        "risco_faixa": "risco publico muito alto",
        "priority_class": "monitoramento recomendado"
      }
    },
    {
      "type": "Feature",
      "geometry": {
        "type": "Point",
        "coordinates": [
          -49.8,
          -18.3
        ]
      },
      "properties": {
        "municipio": "ITUMBIARA",
        "estado": "GOIÁS",
        "bioma": "Cerrado",
        "periodo": "junho de 2026",
        "seca_faixa": "atencao climatica",
        "focos_faixa": "focos pontuais",
        "energia_faixa": "energia observada alta",
        "risco_faixa": "risco publico muito alto",
        "priority_class": "monitoramento recomendado"
      }
    },
    {
      "type": "Feature",
      "geometry": {
        "type": "Point",
        "coordinates": [
          -55.5,
          -8
        ]
      },
      "properties": {
        "municipio": "NOVO PROGRESSO",
        "estado": "PARÁ",
        "bioma": "Amazônia",
        "periodo": "junho de 2026",
        "seca_faixa": "atencao climatica",
        "focos_faixa": "focos pontuais",
        "energia_faixa": "energia observada baixa",
        "risco_faixa": "risco publico baixo",
        "priority_class": "monitoramento recomendado"
      }
    },
    {
      "type": "Feature",
      "geometry": {
        "type": "Point",
        "coordinates": [
          -47,
          -10.9
        ]
      },
      "properties": {
        "municipio": "PONTE ALTA DO TOCANTINS",
        "estado": "TOCANTINS",
        "bioma": "Cerrado",
        "periodo": "junho de 2026",
        "seca_faixa": "atencao climatica",
        "focos_faixa": "focos elevados",
        "energia_faixa": "energia observada moderada",
        "risco_faixa": "risco publico muito alto",
        "priority_class": "monitoramento recomendado"
      }
    },
    {
      "type": "Feature",
      "geometry": {
        "type": "Point",
        "coordinates": [
          -53.5,
          -19.7
        ]
      },
      "properties": {
        "municipio": "CAMAPUÃ",
        "estado": "MATO GROSSO DO SUL",
        "bioma": "Cerrado",
        "periodo": "junho de 2026",
        "seca_faixa": "atencao climatica",
        "focos_faixa": "focos relevantes",
        "energia_faixa": "energia observada alta",
        "risco_faixa": "risco publico muito alto",
        "priority_class": "monitoramento recomendado"
      }
    },
    {
      "type": "Feature",
      "geometry": {
        "type": "Point",
        "coordinates": [
          -71.4,
          -7.9
        ]
      },
      "properties": {
        "municipio": "TARAUACÁ",
        "estado": "ACRE",
        "bioma": "Amazônia",
        "periodo": "junho de 2026",
        "seca_faixa": "atencao climatica",
        "focos_faixa": "focos relevantes",
        "energia_faixa": "energia observada moderada",
        "risco_faixa": "risco publico moderado",
        "priority_class": "monitoramento recomendado"
      }
    },
    {
      "type": "Feature",
      "geometry": {
        "type": "Point",
        "coordinates": [
          -64.5,
          -10.4
        ]
      },
      "properties": {
        "municipio": "NOVA MAMORÉ",
        "estado": "RONDÔNIA",
        "bioma": "Amazônia",
        "periodo": "junho de 2026",
        "seca_faixa": "atencao climatica",
        "focos_faixa": "focos relevantes",
        "energia_faixa": "energia observada moderada",
        "risco_faixa": "risco publico baixo",
        "priority_class": "monitoramento recomendado"
      }
    },
    {
      "type": "Feature",
      "geometry": {
        "type": "Point",
        "coordinates": [
          -54.7,
          -18.4
        ]
      },
      "properties": {
        "municipio": "COXIM",
        "estado": "MATO GROSSO DO SUL",
        "bioma": "Cerrado",
        "periodo": "junho de 2026",
        "seca_faixa": "atencao climatica",
        "focos_faixa": "focos moderados",
        "energia_faixa": "energia observada baixa",
        "risco_faixa": "risco publico alto",
        "priority_class": "monitoramento recomendado"
      }
    },
    {
      "type": "Feature",
      "geometry": {
        "type": "Point",
        "coordinates": [
          -48.2,
          -20
        ]
      },
      "properties": {
        "municipio": "CONCEIÇÃO DAS ALAGOAS",
        "estado": "MINAS GERAIS",
        "bioma": "Cerrado",
        "periodo": "junho de 2026",
        "seca_faixa": "atencao climatica",
        "focos_faixa": "focos moderados",
        "energia_faixa": "energia observada baixa",
        "risco_faixa": "risco publico muito alto",
        "priority_class": "monitoramento recomendado"
      }
    },
    {
      "type": "Feature",
      "geometry": {
        "type": "Point",
        "coordinates": [
          -70,
          -8.5
        ]
      },
      "properties": {
        "municipio": "FEIJÓ",
        "estado": "ACRE",
        "bioma": "Amazônia",
        "periodo": "junho de 2026",
        "seca_faixa": "atencao climatica",
        "focos_faixa": "focos moderados",
        "energia_faixa": "energia observada baixa",
        "risco_faixa": "risco publico baixo",
        "priority_class": "monitoramento recomendado"
      }
    },
    {
      "type": "Feature",
      "geometry": {
        "type": "Point",
        "coordinates": [
          -46.3,
          -5.9
        ]
      },
      "properties": {
        "municipio": "GRAJAÚ",
        "estado": "MARANHÃO",
        "bioma": "Cerrado",
        "periodo": "junho de 2026",
        "seca_faixa": "atencao climatica",
        "focos_faixa": "focos moderados",
        "energia_faixa": "energia observada moderada",
        "risco_faixa": "risco publico alto",
        "priority_class": "monitoramento recomendado"
      }
    },
    {
      "type": "Feature",
      "geometry": {
        "type": "Point",
        "coordinates": [
          -55.7,
          -15.3
        ]
      },
      "properties": {
        "municipio": "CHAPADA DOS GUIMARÃES",
        "estado": "MATO GROSSO",
        "bioma": "Cerrado",
        "periodo": "junho de 2026",
        "seca_faixa": "atencao climatica",
        "focos_faixa": "focos pontuais",
        "energia_faixa": "energia observada baixa",
        "risco_faixa": "risco publico moderado",
        "priority_class": "monitoramento recomendado"
      }
    },
    {
      "type": "Feature",
      "geometry": {
        "type": "Point",
        "coordinates": [
          -52.2,
          -20.3
        ]
      },
      "properties": {
        "municipio": "TRÊS LAGOAS",
        "estado": "MATO GROSSO DO SUL",
        "bioma": "Cerrado",
        "periodo": "junho de 2026",
        "seca_faixa": "atencao climatica",
        "focos_faixa": "focos pontuais",
        "energia_faixa": "energia observada moderada",
        "risco_faixa": "risco publico alto",
        "priority_class": "monitoramento recomendado"
      }
    },
    {
      "type": "Feature",
      "geometry": {
        "type": "Point",
        "coordinates": [
          -49.1,
          -19.2
        ]
      },
      "properties": {
        "municipio": "PRATA",
        "estado": "MINAS GERAIS",
        "bioma": "Cerrado",
        "periodo": "junho de 2026",
        "seca_faixa": "atencao climatica",
        "focos_faixa": "focos pontuais",
        "energia_faixa": "energia observada baixa",
        "risco_faixa": "risco publico muito alto",
        "priority_class": "monitoramento recomendado"
      }
    },
    {
      "type": "Feature",
      "geometry": {
        "type": "Point",
        "coordinates": [
          -47.3,
          -17.5
        ]
      },
      "properties": {
        "municipio": "GUARDA-MOR",
        "estado": "MINAS GERAIS",
        "bioma": "Cerrado",
        "periodo": "junho de 2026",
        "seca_faixa": "atencao climatica",
        "focos_faixa": "focos moderados",
        "energia_faixa": "energia observada moderada",
        "risco_faixa": "risco publico muito alto",
        "priority_class": "monitoramento recomendado"
      }
    },
    {
      "type": "Feature",
      "geometry": {
        "type": "Point",
        "coordinates": [
          -45.1,
          -5.8
        ]
      },
      "properties": {
        "municipio": "BARRA DO CORDA",
        "estado": "MARANHÃO",
        "bioma": "Cerrado",
        "periodo": "junho de 2026",
        "seca_faixa": "atencao climatica",
        "focos_faixa": "focos moderados",
        "energia_faixa": "energia observada baixa",
        "risco_faixa": "risco publico baixo",
        "priority_class": "monitoramento recomendado"
      }
    },
    {
      "type": "Feature",
      "geometry": {
        "type": "Point",
        "coordinates": [
          -57.4,
          -14.2
        ]
      },
      "properties": {
        "municipio": "NOVA MARILÂNDIA",
        "estado": "MATO GROSSO",
        "bioma": "Amazônia",
        "periodo": "junho de 2026",
        "seca_faixa": "atencao climatica",
        "focos_faixa": "focos moderados",
        "energia_faixa": "energia observada baixa",
        "risco_faixa": "risco publico moderado",
        "priority_class": "monitoramento recomendado"
      }
    },
    {
      "type": "Feature",
      "geometry": {
        "type": "Point",
        "coordinates": [
          -54.6,
          -18.2
        ]
      },
      "properties": {
        "municipio": "PEDRO GOMES",
        "estado": "MATO GROSSO DO SUL",
        "bioma": "Cerrado",
        "periodo": "junho de 2026",
        "seca_faixa": "atencao climatica",
        "focos_faixa": "focos pontuais",
        "energia_faixa": "energia observada baixa",
        "risco_faixa": "risco publico muito alto",
        "priority_class": "monitoramento recomendado"
      }
    },
    {
      "type": "Feature",
      "geometry": {
        "type": "Point",
        "coordinates": [
          -47.1,
          -21.5
        ]
      },
      "properties": {
        "municipio": "MOCOCA",
        "estado": "SÃO PAULO",
        "bioma": "Cerrado",
        "periodo": "junho de 2026",
        "seca_faixa": "atencao climatica",
        "focos_faixa": "focos pontuais",
        "energia_faixa": "energia observada baixa",
        "risco_faixa": "risco publico muito alto",
        "priority_class": "monitoramento recomendado"
      }
    }
  ]
}
