{
  "type": "FeatureCollection",
  "features": [
    {
      "type": "Feature",
      "geometry": {
        "type": "Point",
        "coordinates": [
          -48.3,
          -11.1
        ]
      },
      "properties": {
        "municipio": "SILVANÓPOLIS",
        "estado": "TOCANTINS",
        "classe": "watchlist",
        "classe_publica": "Ponto de atenção",
        "rank_faixa": "fora do top 100",
        "focos_faixa": "focos relevantes",
        "concordancia_faixa": "concordancia muito alta",
        "recorrencia_faixa": "recorrencia relevante",
        "concentracao_faixa": "concentracao muito alta",
        "corredor_silencioso": false
      }
    },
    {
      "type": "Feature",
      "geometry": {
        "type": "Point",
        "coordinates": [
          -47.9,
          -11.4
        ]
      },
      "properties": {
        "municipio": "CHAPADA DA NATIVIDADE",
        "estado": "TOCANTINS",
        "classe": "rapid_emerging_confirmed",
        "classe_publica": "Emergente confirmado",
        "rank_faixa": "fora do top 100",
        "focos_faixa": "focos elevados",
        "concordancia_faixa": "concordancia muito alta",
        "recorrencia_faixa": "recorrencia relevante",
        "concentracao_faixa": "concentracao moderada",
        "corredor_silencioso": false
      }
    },
    {
      "type": "Feature",
      "geometry": {
        "type": "Point",
        "coordinates": [
          -49.4,
          -10.7
        ]
      },
      "properties": {
        "municipio": "CRISTALÂNDIA",
        "estado": "TOCANTINS",
        "classe": "recurring_confirmed_silent",
        "classe_publica": "Corredor silencioso",
        "rank_faixa": "fora do top 50",
        "focos_faixa": "focos elevados",
        "concordancia_faixa": "concordancia muito alta",
        "recorrencia_faixa": "recorrencia relevante",
        "concentracao_faixa": "concentracao alta",
        "corredor_silencioso": true
      }
    },
    {
      "type": "Feature",
      "geometry": {
        "type": "Point",
        "coordinates": [
          -48,
          -11.5
        ]
      },
      "properties": {
        "municipio": "SANTA ROSA DO TOCANTINS",
        "estado": "TOCANTINS",
        "classe": "rapid_emerging_confirmed",
        "classe_publica": "Emergente confirmado",
        "rank_faixa": "fora do top 100",
        "focos_faixa": "focos elevados",
        "concordancia_faixa": "concordancia muito alta",
        "recorrencia_faixa": "recorrencia relevante",
        "concentracao_faixa": "concentracao moderada",
        "corredor_silencioso": false
      }
    },
    {
      "type": "Feature",
      "geometry": {
        "type": "Point",
        "coordinates": [
          -49.7,
          -11.3
        ]
      },
      "properties": {
        "municipio": "DUERÉ",
        "estado": "TOCANTINS",
        "classe": "recurring_confirmed_silent",
        "classe_publica": "Corredor silencioso",
        "rank_faixa": "fora do top 50",
        "focos_faixa": "focos elevados",
        "concordancia_faixa": "concordancia muito alta",
        "recorrencia_faixa": "recorrencia alta",
        "concentracao_faixa": "concentracao moderada",
        "corredor_silencioso": true
      }
    },
    {
      "type": "Feature",
      "geometry": {
        "type": "Point",
        "coordinates": [
          -48.2,
          -7.9
        ]
      },
      "properties": {
        "municipio": "NOVA OLINDA",
        "estado": "TOCANTINS",
        "classe": "rapid_emerging_confirmed",
        "classe_publica": "Emergente confirmado",
        "rank_faixa": "fora do top 100",
        "focos_faixa": "focos relevantes",
        "concordancia_faixa": "concordancia muito alta",
        "recorrencia_faixa": "recorrencia pontual",
        "concentracao_faixa": "concentracao muito alta",
        "corredor_silencioso": false
      }
    },
    {
      "type": "Feature",
      "geometry": {
        "type": "Point",
        "coordinates": [
          -46.3,
          -12.6
        ]
      },
      "properties": {
        "municipio": "TAGUATINGA",
        "estado": "TOCANTINS",
        "classe": "recent_surge_high_volume",
        "classe_publica": "Pulso recente de alto volume",
        "rank_faixa": "top 50 por volume",
        "focos_faixa": "focos elevados",
        "concordancia_faixa": "concordancia muito alta",
        "recorrencia_faixa": "recorrencia relevante",
        "concentracao_faixa": "concentracao moderada",
        "corredor_silencioso": false
      }
    },
    {
      "type": "Feature",
      "geometry": {
        "type": "Point",
        "coordinates": [
          -48.1,
          -10
        ]
      },
      "properties": {
        "municipio": "APARECIDA DO RIO NEGRO",
        "estado": "TOCANTINS",
        "classe": "recurring_confirmed_silent",
        "classe_publica": "Corredor silencioso",
        "rank_faixa": "fora do top 50",
        "focos_faixa": "focos elevados",
        "concordancia_faixa": "concordancia muito alta",
        "recorrencia_faixa": "recorrencia relevante",
        "concentracao_faixa": "concentracao moderada",
        "corredor_silencioso": true
      }
    },
    {
      "type": "Feature",
      "geometry": {
        "type": "Point",
        "coordinates": [
          -48.5,
          -12.1
        ]
      },
      "properties": {
        "municipio": "PEIXE",
        "estado": "TOCANTINS",
        "classe": "watchlist",
        "classe_publica": "Ponto de atenção",
        "rank_faixa": "fora do top 100",
        "focos_faixa": "focos elevados",
        "concordancia_faixa": "concordancia muito alta",
        "recorrencia_faixa": "recorrencia moderada",
        "concentracao_faixa": "concentracao muito alta",
        "corredor_silencioso": false
      }
    },
    {
      "type": "Feature",
      "geometry": {
        "type": "Point",
        "coordinates": [
          -49.2,
          -10.2
        ]
      },
      "properties": {
        "municipio": "CHAPADA DE AREIA",
        "estado": "TOCANTINS",
        "classe": "watchlist",
        "classe_publica": "Ponto de atenção",
        "rank_faixa": "fora do top 100",
        "focos_faixa": "focos relevantes",
        "concordancia_faixa": "concordancia muito alta",
        "recorrencia_faixa": "recorrencia moderada",
        "concentracao_faixa": "concentracao muito alta",
        "corredor_silencioso": false
      }
    },
    {
      "type": "Feature",
      "geometry": {
        "type": "Point",
        "coordinates": [
          -49.5,
          -10.4
        ]
      },
      "properties": {
        "municipio": "PIUM",
        "estado": "TOCANTINS",
        "classe": "recurring_confirmed_silent",
        "classe_publica": "Corredor silencioso",
        "rank_faixa": "top 50 por volume",
        "focos_faixa": "focos elevados",
        "concordancia_faixa": "concordancia muito alta",
        "recorrencia_faixa": "recorrencia alta",
        "concentracao_faixa": "concentracao moderada",
        "corredor_silencioso": true
      }
    },
    {
      "type": "Feature",
      "geometry": {
        "type": "Point",
        "coordinates": [
          -49.3,
          -11.2
        ]
      },
      "properties": {
        "municipio": "CRIXÁS DO TOCANTINS",
        "estado": "TOCANTINS",
        "classe": "rapid_emerging_confirmed",
        "classe_publica": "Emergente confirmado",
        "rank_faixa": "fora do top 100",
        "focos_faixa": "focos moderados",
        "concordancia_faixa": "concordancia muito alta",
        "recorrencia_faixa": "recorrencia pontual",
        "concentracao_faixa": "concentracao muito alta",
        "corredor_silencioso": false
      }
    },
    {
      "type": "Feature",
      "geometry": {
        "type": "Point",
        "coordinates": [
          -48,
          -10.5
        ]
      },
      "properties": {
        "municipio": "MONTE DO CARMO",
        "estado": "TOCANTINS",
        "classe": "watchlist",
        "classe_publica": "Ponto de atenção",
        "rank_faixa": "fora do top 50",
        "focos_faixa": "focos relevantes",
        "concordancia_faixa": "concordancia muito alta",
        "recorrencia_faixa": "recorrencia relevante",
        "concentracao_faixa": "concentracao muito alta",
        "corredor_silencioso": false
      }
    },
    {
      "type": "Feature",
      "geometry": {
        "type": "Point",
        "coordinates": [
          -48.3,
          -8
        ]
      },
      "properties": {
        "municipio": "PALMEIRANTE",
        "estado": "TOCANTINS",
        "classe": "watchlist",
        "classe_publica": "Ponto de atenção",
        "rank_faixa": "fora do top 100",
        "focos_faixa": "focos relevantes",
        "concordancia_faixa": "concordancia alta",
        "recorrencia_faixa": "recorrencia relevante",
        "concentracao_faixa": "concentracao muito alta",
        "corredor_silencioso": false
      }
    },
    {
      "type": "Feature",
      "geometry": {
        "type": "Point",
        "coordinates": [
          -47.6,
          -6.4
        ]
      },
      "properties": {
        "municipio": "TOCANTINÓPOLIS",
        "estado": "TOCANTINS",
        "classe": "rapid_emerging_confirmed",
        "classe_publica": "Emergente confirmado",
        "rank_faixa": "fora do top 100",
        "focos_faixa": "focos relevantes",
        "concordancia_faixa": "concordancia muito alta",
        "recorrencia_faixa": "recorrencia pontual",
        "concentracao_faixa": "concentracao alta",
        "corredor_silencioso": false
      }
    },
    {
      "type": "Feature",
      "geometry": {
        "type": "Point",
        "coordinates": [
          -49.4,
          -9.3
        ]
      },
      "properties": {
        "municipio": "ABREULÂNDIA",
        "estado": "TOCANTINS",
        "classe": "rapid_emerging_confirmed",
        "classe_publica": "Emergente confirmado",
        "rank_faixa": "fora do top 100",
        "focos_faixa": "focos relevantes",
        "concordancia_faixa": "concordancia muito alta",
        "recorrencia_faixa": "recorrencia moderada",
        "concentracao_faixa": "concentracao moderada",
        "corredor_silencioso": false
      }
    },
    {
      "type": "Feature",
      "geometry": {
        "type": "Point",
        "coordinates": [
          -47.6,
          -7.8
        ]
      },
      "properties": {
        "municipio": "BARRA DO OURO",
        "estado": "TOCANTINS",
        "classe": "rapid_emerging_confirmed",
        "classe_publica": "Emergente confirmado",
        "rank_faixa": "fora do top 100",
        "focos_faixa": "focos relevantes",
        "concordancia_faixa": "concordancia muito alta",
        "recorrencia_faixa": "recorrencia pontual",
        "concentracao_faixa": "concentracao moderada",
        "corredor_silencioso": false
      }
    },
    {
      "type": "Feature",
      "geometry": {
        "type": "Point",
        "coordinates": [
          -46.5,
          -10.1
        ]
      },
      "properties": {
        "municipio": "SÃO FÉLIX DO TOCANTINS",
        "estado": "TOCANTINS",
        "classe": "recurring_confirmed_silent",
        "classe_publica": "Corredor silencioso",
        "rank_faixa": "fora do top 50",
        "focos_faixa": "focos elevados",
        "concordancia_faixa": "concordancia muito alta",
        "recorrencia_faixa": "recorrencia alta",
        "concentracao_faixa": "concentracao dispersa",
        "corredor_silencioso": true
      }
    },
    {
      "type": "Feature",
      "geometry": {
        "type": "Point",
        "coordinates": [
          -48.3,
          -8.3
        ]
      },
      "properties": {
        "municipio": "TUPIRATINS",
        "estado": "TOCANTINS",
        "classe": "watchlist",
        "classe_publica": "Ponto de atenção",
        "rank_faixa": "fora do top 100",
        "focos_faixa": "focos elevados",
        "concordancia_faixa": "concordancia muito alta",
        "recorrencia_faixa": "recorrencia relevante",
        "concentracao_faixa": "concentracao alta",
        "corredor_silencioso": false
      }
    },
    {
      "type": "Feature",
      "geometry": {
        "type": "Point",
        "coordinates": [
          -48.4,
          -11.3
        ]
      },
      "properties": {
        "municipio": "IPUEIRAS",
        "estado": "TOCANTINS",
        "classe": "watchlist",
        "classe_publica": "Ponto de atenção",
        "rank_faixa": "fora do top 100",
        "focos_faixa": "focos relevantes",
        "concordancia_faixa": "concordancia muito alta",
        "recorrencia_faixa": "recorrencia pontual",
        "concentracao_faixa": "concentracao muito alta",
        "corredor_silencioso": false
      }
    },
    {
      "type": "Feature",
      "geometry": {
        "type": "Point",
        "coordinates": [
          -47.1,
          -11.8
        ]
      },
      "properties": {
        "municipio": "DIANÓPOLIS",
        "estado": "TOCANTINS",
        "classe": "watchlist",
        "classe_publica": "Ponto de atenção",
        "rank_faixa": "top 50 por volume",
        "focos_faixa": "focos elevados",
        "concordancia_faixa": "concordancia muito alta",
        "recorrencia_faixa": "recorrencia alta",
        "concentracao_faixa": "concentracao moderada",
        "corredor_silencioso": false
      }
    },
    {
      "type": "Feature",
      "geometry": {
        "type": "Point",
        "coordinates": [
          -47,
          -12.8
        ]
      },
      "properties": {
        "municipio": "ARRAIAS",
        "estado": "TOCANTINS",
        "classe": "watchlist",
        "classe_publica": "Ponto de atenção",
        "rank_faixa": "fora do top 100",
        "focos_faixa": "focos relevantes",
        "concordancia_faixa": "concordancia muito alta",
        "recorrencia_faixa": "recorrencia relevante",
        "concentracao_faixa": "concentracao dispersa",
        "corredor_silencioso": false
      }
    },
    {
      "type": "Feature",
      "geometry": {
        "type": "Point",
        "coordinates": [
          -48.1,
          -12.1
        ]
      },
      "properties": {
        "municipio": "SÃO VALÉRIO",
        "estado": "TOCANTINS",
        "classe": "watchlist",
        "classe_publica": "Ponto de atenção",
        "rank_faixa": "fora do top 100",
        "focos_faixa": "focos elevados",
        "concordancia_faixa": "concordancia muito alta",
        "recorrencia_faixa": "recorrencia relevante",
        "concentracao_faixa": "concentracao alta",
        "corredor_silencioso": false
      }
    },
    {
      "type": "Feature",
      "geometry": {
        "type": "Point",
        "coordinates": [
          -48.3,
          -10.4
        ]
      },
      "properties": {
        "municipio": "PALMAS",
        "estado": "TOCANTINS",
        "classe": "watchlist",
        "classe_publica": "Ponto de atenção",
        "rank_faixa": "fora do top 100",
        "focos_faixa": "focos elevados",
        "concordancia_faixa": "concordancia alta",
        "recorrencia_faixa": "recorrencia relevante",
        "concentracao_faixa": "concentracao dispersa",
        "corredor_silencioso": false
      }
    },
    {
      "type": "Feature",
      "geometry": {
        "type": "Point",
        "coordinates": [
          -47.1,
          -10.2
        ]
      },
      "properties": {
        "municipio": "NOVO ACORDO",
        "estado": "TOCANTINS",
        "classe": "watchlist",
        "classe_publica": "Ponto de atenção",
        "rank_faixa": "fora do top 50",
        "focos_faixa": "focos elevados",
        "concordancia_faixa": "concordancia muito alta",
        "recorrencia_faixa": "recorrencia moderada",
        "concentracao_faixa": "concentracao moderada",
        "corredor_silencioso": false
      }
    },
    {
      "type": "Feature",
      "geometry": {
        "type": "Point",
        "coordinates": [
          -47.5,
          -10.5
        ]
      },
      "properties": {
        "municipio": "LAGOA DO TOCANTINS",
        "estado": "TOCANTINS",
        "classe": "watchlist",
        "classe_publica": "Ponto de atenção",
        "rank_faixa": "fora do top 100",
        "focos_faixa": "focos relevantes",
        "concordancia_faixa": "concordancia muito alta",
        "recorrencia_faixa": "recorrencia moderada",
        "concentracao_faixa": "concentracao alta",
        "corredor_silencioso": false
      }
    },
    {
      "type": "Feature",
      "geometry": {
        "type": "Point",
        "coordinates": [
          -49.8,
          -12.1
        ]
      },
      "properties": {
        "municipio": "FORMOSO DO ARAGUAIA",
        "estado": "TOCANTINS",
        "classe": "watchlist",
        "classe_publica": "Ponto de atenção",
        "rank_faixa": "fora do top 50",
        "focos_faixa": "focos elevados",
        "concordancia_faixa": "concordancia muito alta",
        "recorrencia_faixa": "recorrencia alta",
        "concentracao_faixa": "concentracao moderada",
        "corredor_silencioso": false
      }
    },
    {
      "type": "Feature",
      "geometry": {
        "type": "Point",
        "coordinates": [
          -47.8,
          -6.2
        ]
      },
      "properties": {
        "municipio": "MAURILÂNDIA DO TOCANTINS",
        "estado": "TOCANTINS",
        "classe": "rapid_emerging_confirmed",
        "classe_publica": "Emergente confirmado",
        "rank_faixa": "fora do top 100",
        "focos_faixa": "focos elevados",
        "concordancia_faixa": "concordancia muito alta",
        "recorrencia_faixa": "recorrencia pontual",
        "concentracao_faixa": "concentracao moderada",
        "corredor_silencioso": false
      }
    },
    {
      "type": "Feature",
      "geometry": {
        "type": "Point",
        "coordinates": [
          -47.9,
          -6.1
        ]
      },
      "properties": {
        "municipio": "CACHOEIRINHA",
        "estado": "TOCANTINS",
        "classe": "watchlist",
        "classe_publica": "Ponto de atenção",
        "rank_faixa": "fora do top 100",
        "focos_faixa": "focos elevados",
        "concordancia_faixa": "concordancia muito alta",
        "recorrencia_faixa": "recorrencia pontual",
        "concentracao_faixa": "concentracao moderada",
        "corredor_silencioso": false
      }
    },
    {
      "type": "Feature",
      "geometry": {
        "type": "Point",
        "coordinates": [
          -48,
          -6.9
        ]
      },
      "properties": {
        "municipio": "WANDERLÂNDIA",
        "estado": "TOCANTINS",
        "classe": "watchlist",
        "classe_publica": "Ponto de atenção",
        "rank_faixa": "fora do top 100",
        "focos_faixa": "focos elevados",
        "concordancia_faixa": "concordancia muito alta",
        "recorrencia_faixa": "recorrencia relevante",
        "concentracao_faixa": "concentracao alta",
        "corredor_silencioso": false
      }
    },
    {
      "type": "Feature",
      "geometry": {
        "type": "Point",
        "coordinates": [
          -48.4,
          -8.8
        ]
      },
      "properties": {
        "municipio": "GUARAÍ",
        "estado": "TOCANTINS",
        "classe": "watchlist",
        "classe_publica": "Ponto de atenção",
        "rank_faixa": "top 50 por volume",
        "focos_faixa": "focos elevados",
        "concordancia_faixa": "concordancia muito alta",
        "recorrencia_faixa": "recorrencia relevante",
        "concentracao_faixa": "concentracao alta",
        "corredor_silencioso": false
      }
    },
    {
      "type": "Feature",
      "geometry": {
        "type": "Point",
        "coordinates": [
          -48,
          -9
        ]
      },
      "properties": {
        "municipio": "BOM JESUS DO TOCANTINS",
        "estado": "TOCANTINS",
        "classe": "watchlist",
        "classe_publica": "Ponto de atenção",
        "rank_faixa": "fora do top 100",
        "focos_faixa": "focos elevados",
        "concordancia_faixa": "concordancia muito alta",
        "recorrencia_faixa": "recorrencia relevante",
        "concentracao_faixa": "concentracao moderada",
        "corredor_silencioso": false
      }
    },
    {
      "type": "Feature",
      "geometry": {
        "type": "Point",
        "coordinates": [
          -46.9,
          -8.5
        ]
      },
      "properties": {
        "municipio": "CAMPOS LINDOS",
        "estado": "TOCANTINS",
        "classe": "watchlist",
        "classe_publica": "Ponto de atenção",
        "rank_faixa": "fora do top 50",
        "focos_faixa": "focos elevados",
        "concordancia_faixa": "concordancia muito alta",
        "recorrencia_faixa": "recorrencia relevante",
        "concentracao_faixa": "concentracao dispersa",
        "corredor_silencioso": false
      }
    },
    {
      "type": "Feature",
      "geometry": {
        "type": "Point",
        "coordinates": [
          -48.3,
          -12.6
        ]
      },
      "properties": {
        "municipio": "SÃO SALVADOR DO TOCANTINS",
        "estado": "TOCANTINS",
        "classe": "watchlist",
        "classe_publica": "Ponto de atenção",
        "rank_faixa": "fora do top 100",
        "focos_faixa": "focos elevados",
        "concordancia_faixa": "concordancia muito alta",
        "recorrencia_faixa": "recorrencia relevante",
        "concentracao_faixa": "concentracao moderada",
        "corredor_silencioso": false
      }
    },
    {
      "type": "Feature",
      "geometry": {
        "type": "Point",
        "coordinates": [
          -48.7,
          -9.1
        ]
      },
      "properties": {
        "municipio": "FORTALEZA DO TABOCÃO",
        "estado": "TOCANTINS",
        "classe": "watchlist",
        "classe_publica": "Ponto de atenção",
        "rank_faixa": "fora do top 100",
        "focos_faixa": "focos relevantes",
        "concordancia_faixa": "concordancia muito alta",
        "recorrencia_faixa": "recorrencia relevante",
        "concentracao_faixa": "concentracao moderada",
        "corredor_silencioso": false
      }
    },
    {
      "type": "Feature",
      "geometry": {
        "type": "Point",
        "coordinates": [
          -47.4,
          -12
        ]
      },
      "properties": {
        "municipio": "CONCEIÇÃO DO TOCANTINS",
        "estado": "TOCANTINS",
        "classe": "watchlist",
        "classe_publica": "Ponto de atenção",
        "rank_faixa": "top 50 por volume",
        "focos_faixa": "focos elevados",
        "concordancia_faixa": "concordancia muito alta",
        "recorrencia_faixa": "recorrencia alta",
        "concentracao_faixa": "concentracao moderada",
        "corredor_silencioso": false
      }
    },
    {
      "type": "Feature",
      "geometry": {
        "type": "Point",
        "coordinates": [
          -49,
          -9.4
        ]
      },
      "properties": {
        "municipio": "DOIS IRMÃOS DO TOCANTINS",
        "estado": "TOCANTINS",
        "classe": "watchlist",
        "classe_publica": "Ponto de atenção",
        "rank_faixa": "fora do top 100",
        "focos_faixa": "focos relevantes",
        "concordancia_faixa": "concordancia alta",
        "recorrencia_faixa": "recorrencia relevante",
        "concentracao_faixa": "concentracao dispersa",
        "corredor_silencioso": false
      }
    },
    {
      "type": "Feature",
      "geometry": {
        "type": "Point",
        "coordinates": [
          -47.1,
          -8.7
        ]
      },
      "properties": {
        "municipio": "RECURSOLÂNDIA",
        "estado": "TOCANTINS",
        "classe": "watchlist",
        "classe_publica": "Ponto de atenção",
        "rank_faixa": "fora do top 100",
        "focos_faixa": "focos relevantes",
        "concordancia_faixa": "concordancia alta",
        "recorrencia_faixa": "recorrencia relevante",
        "concentracao_faixa": "concentracao dispersa",
        "corredor_silencioso": false
      }
    },
    {
      "type": "Feature",
      "geometry": {
        "type": "Point",
        "coordinates": [
          -49.4,
          -11
        ]
      },
      "properties": {
        "municipio": "SANTA RITA DO TOCANTINS",
        "estado": "TOCANTINS",
        "classe": "watchlist",
        "classe_publica": "Ponto de atenção",
        "rank_faixa": "fora do top 50",
        "focos_faixa": "focos elevados",
        "concordancia_faixa": "concordancia muito alta",
        "recorrencia_faixa": "recorrencia alta",
        "concentracao_faixa": "concentracao dispersa",
        "corredor_silencioso": false
      }
    },
    {
      "type": "Feature",
      "geometry": {
        "type": "Point",
        "coordinates": [
          -47.8,
          -12
        ]
      },
      "properties": {
        "municipio": "NATIVIDADE",
        "estado": "TOCANTINS",
        "classe": "watchlist",
        "classe_publica": "Ponto de atenção",
        "rank_faixa": "top 50 por volume",
        "focos_faixa": "focos elevados",
        "concordancia_faixa": "concordancia muito alta",
        "recorrencia_faixa": "recorrencia alta",
        "concentracao_faixa": "concentracao dispersa",
        "corredor_silencioso": false
      }
    },
    {
      "type": "Feature",
      "geometry": {
        "type": "Point",
        "coordinates": [
          -48,
          -12.4
        ]
      },
      "properties": {
        "municipio": "PARANÃ",
        "estado": "TOCANTINS",
        "classe": "watchlist",
        "classe_publica": "Ponto de atenção",
        "rank_faixa": "fora do top 50",
        "focos_faixa": "focos elevados",
        "concordancia_faixa": "concordancia muito alta",
        "recorrencia_faixa": "recorrencia alta",
        "concentracao_faixa": "concentracao dispersa",
        "corredor_silencioso": false
      }
    },
    {
      "type": "Feature",
      "geometry": {
        "type": "Point",
        "coordinates": [
          -48.7,
          -9.6
        ]
      },
      "properties": {
        "municipio": "MIRANORTE",
        "estado": "TOCANTINS",
        "classe": "watchlist",
        "classe_publica": "Ponto de atenção",
        "rank_faixa": "fora do top 100",
        "focos_faixa": "focos relevantes",
        "concordancia_faixa": "concordancia muito alta",
        "recorrencia_faixa": "recorrencia relevante",
        "concentracao_faixa": "concentracao dispersa",
        "corredor_silencioso": false
      }
    },
    {
      "type": "Feature",
      "geometry": {
        "type": "Point",
        "coordinates": [
          -48.2,
          -9.5
        ]
      },
      "properties": {
        "municipio": "PEDRO AFONSO",
        "estado": "TOCANTINS",
        "classe": "watchlist",
        "classe_publica": "Ponto de atenção",
        "rank_faixa": "fora do top 100",
        "focos_faixa": "focos relevantes",
        "concordancia_faixa": "concordancia muito alta",
        "recorrencia_faixa": "recorrencia relevante",
        "concentracao_faixa": "concentracao dispersa",
        "corredor_silencioso": false
      }
    },
    {
      "type": "Feature",
      "geometry": {
        "type": "Point",
        "coordinates": [
          -47.2,
          -9.9
        ]
      },
      "properties": {
        "municipio": "RIO SONO",
        "estado": "TOCANTINS",
        "classe": "watchlist",
        "classe_publica": "Ponto de atenção",
        "rank_faixa": "top 50 por volume",
        "focos_faixa": "focos elevados",
        "concordancia_faixa": "concordancia muito alta",
        "recorrencia_faixa": "recorrencia alta",
        "concentracao_faixa": "concentracao dispersa",
        "corredor_silencioso": false
      }
    },
    {
      "type": "Feature",
      "geometry": {
        "type": "Point",
        "coordinates": [
          -46.7,
          -11.9
        ]
      },
      "properties": {
        "municipio": "NOVO JARDIM",
        "estado": "TOCANTINS",
        "classe": "watchlist",
        "classe_publica": "Ponto de atenção",
        "rank_faixa": "fora do top 100",
        "focos_faixa": "focos moderados",
        "concordancia_faixa": "concordancia muito alta",
        "recorrencia_faixa": "recorrencia relevante",
        "concentracao_faixa": "concentracao moderada",
        "corredor_silencioso": false
      }
    },
    {
      "type": "Feature",
      "geometry": {
        "type": "Point",
        "coordinates": [
          -47.4,
          -9.1
        ]
      },
      "properties": {
        "municipio": "CENTENÁRIO",
        "estado": "TOCANTINS",
        "classe": "watchlist",
        "classe_publica": "Ponto de atenção",
        "rank_faixa": "fora do top 100",
        "focos_faixa": "focos relevantes",
        "concordancia_faixa": "concordancia muito alta",
        "recorrencia_faixa": "recorrencia relevante",
        "concentracao_faixa": "concentracao dispersa",
        "corredor_silencioso": false
      }
    },
    {
      "type": "Feature",
      "geometry": {
        "type": "Point",
        "coordinates": [
          -47.8,
          -9
        ]
      },
      "properties": {
        "municipio": "SANTA MARIA DO TOCANTINS",
        "estado": "TOCANTINS",
        "classe": "watchlist",
        "classe_publica": "Ponto de atenção",
        "rank_faixa": "fora do top 100",
        "focos_faixa": "focos relevantes",
        "concordancia_faixa": "concordancia moderada",
        "recorrencia_faixa": "recorrencia relevante",
        "concentracao_faixa": "concentracao moderada",
        "corredor_silencioso": false
      }
    },
    {
      "type": "Feature",
      "geometry": {
        "type": "Point",
        "coordinates": [
          -47.2,
          -8.3
        ]
      },
      "properties": {
        "municipio": "GOIATINS",
        "estado": "TOCANTINS",
        "classe": "watchlist",
        "classe_publica": "Ponto de atenção",
        "rank_faixa": "fora do top 50",
        "focos_faixa": "focos elevados",
        "concordancia_faixa": "concordancia muito alta",
        "recorrencia_faixa": "recorrencia alta",
        "concentracao_faixa": "concentracao dispersa",
        "corredor_silencioso": false
      }
    },
    {
      "type": "Feature",
      "geometry": {
        "type": "Point",
        "coordinates": [
          -48.7,
          -10.1
        ]
      },
      "properties": {
        "municipio": "MIRACEMA DO TOCANTINS",
        "estado": "TOCANTINS",
        "classe": "watchlist",
        "classe_publica": "Ponto de atenção",
        "rank_faixa": "fora do top 50",
        "focos_faixa": "focos relevantes",
        "concordancia_faixa": "concordancia muito alta",
        "recorrencia_faixa": "recorrencia relevante",
        "concentracao_faixa": "concentracao dispersa",
        "corredor_silencioso": false
      }
    },
    {
      "type": "Feature",
      "geometry": {
        "type": "Point",
        "coordinates": [
          -47.6,
          -8.7
        ]
      },
      "properties": {
        "municipio": "ITACAJÁ",
        "estado": "TOCANTINS",
        "classe": "watchlist",
        "classe_publica": "Ponto de atenção",
        "rank_faixa": "top 50 por volume",
        "focos_faixa": "focos elevados",
        "concordancia_faixa": "concordancia muito alta",
        "recorrencia_faixa": "recorrencia alta",
        "concentracao_faixa": "concentracao dispersa",
        "corredor_silencioso": false
      }
    },
    {
      "type": "Feature",
      "geometry": {
        "type": "Point",
        "coordinates": [
          -48.2,
          -9.6
        ]
      },
      "properties": {
        "municipio": "TOCANTÍNIA",
        "estado": "TOCANTINS",
        "classe": "watchlist",
        "classe_publica": "Ponto de atenção",
        "rank_faixa": "top 50 por volume",
        "focos_faixa": "focos elevados",
        "concordancia_faixa": "concordancia muito alta",
        "recorrencia_faixa": "recorrencia alta",
        "concentracao_faixa": "concentracao dispersa",
        "corredor_silencioso": false
      }
    },
    {
      "type": "Feature",
      "geometry": {
        "type": "Point",
        "coordinates": [
          -47.4,
          -11.5
        ]
      },
      "properties": {
        "municipio": "ALMAS",
        "estado": "TOCANTINS",
        "classe": "watchlist",
        "classe_publica": "Ponto de atenção",
        "rank_faixa": "top 50 por volume",
        "focos_faixa": "focos elevados",
        "concordancia_faixa": "concordancia muito alta",
        "recorrencia_faixa": "recorrencia alta",
        "concentracao_faixa": "concentracao dispersa",
        "corredor_silencioso": false
      }
    },
    {
      "type": "Feature",
      "geometry": {
        "type": "Point",
        "coordinates": [
          -47.1,
          -9.7
        ]
      },
      "properties": {
        "municipio": "LIZARDA",
        "estado": "TOCANTINS",
        "classe": "watchlist",
        "classe_publica": "Ponto de atenção",
        "rank_faixa": "fora do top 50",
        "focos_faixa": "focos elevados",
        "concordancia_faixa": "concordancia alta",
        "recorrencia_faixa": "recorrencia alta",
        "concentracao_faixa": "concentracao dispersa",
        "corredor_silencioso": false
      }
    },
    {
      "type": "Feature",
      "geometry": {
        "type": "Point",
        "coordinates": [
          -48.7,
          -10.5
        ]
      },
      "properties": {
        "municipio": "PORTO NACIONAL",
        "estado": "TOCANTINS",
        "classe": "watchlist",
        "classe_publica": "Ponto de atenção",
        "rank_faixa": "fora do top 50",
        "focos_faixa": "focos relevantes",
        "concordancia_faixa": "concordancia moderada",
        "recorrencia_faixa": "recorrencia relevante",
        "concentracao_faixa": "concentracao dispersa",
        "corredor_silencioso": false
      }
    }
  ]
}
